start=new Date('2023-06-04T00:00:00.000Z').valueOf();
sats=[{"APOAPSIS":"540.392","MEAN_ANOMALY":"270.4215","NORAD_CAT_ID":"51863","EPHEMERIS_TYPE":"0","BSTAR":"0.00007013100000","OBJECT_ID":"2022-022M","MEAN_MOTION":"15.08837540","DECAY_DATE":null,"PERIOD":"95.438","REF_FRAME":"TEME","GP_ID":"233144062","FILE":"3924324","OBJECT_TYPE":"PAYLOAD","RCS_SIZE":"LARGE","MEAN_ELEMENT_THEORY":"SGP4","CLASSIFICATION_TYPE":"U","ARG_OF_PERICENTER":"89.6883","TIME_SYSTEM":"UTC","LAUNCH_DATE":"2022-03-03","MEAN_MOTION_DDOT":"0.0000000000000","CENTER_NAME":"EARTH","MEAN_MOTION_DOT":"0.00000829","REV_AT_EPOCH":"7066","SITE":"AFETR","PERIAPSIS":"539.114","EPOCH":"2023-06-03T21:02:10.883904","TLE_LINE2":"2 51863  53.2159 222.3481 0000924  89.6883 270.4215 15.08837540 70660","TLE_LINE1":"1 51863U 22022M   23154.87651486  .00000829  00000-0  70131-4 0  9996","INCLINATION":"53.2159","ECCENTRICITY":"0.00009240","ELEMENT_SET_NO":"999","COUNTRY_CODE":"US","RA_OF_ASC_NODE":"222.3481","OBJECT_NAME":"STARLINK-3555","SEMIMAJOR_AXIS":"6917.888"},{"EPHEMERIS_TYPE":"0","BSTAR":"0.00007944300000","OBJECT_ID":"2022-022N","MEAN_ANOMALY":"247.7591","NORAD_CAT_ID":"51864","APOAPSIS":"540.348","OBJECT_TYPE":"PAYLOAD","FILE":"3924324","GP_ID":"233144313","MEAN_MOTION":"15.08836834","DECAY_DATE":null,"PERIOD":"95.438","REF_FRAME":"TEME","MEAN_ELEMENT_THEORY":"SGP4","RCS_SIZE":"LARGE","ARG_OF_PERICENTER":"112.3492","CLASSIFICATION_TYPE":"U","SITE":"AFETR","REV_AT_EPOCH":"7071","MEAN_MOTION_DOT":"0.00000977","CENTER_NAME":"EARTH","MEAN_MOTION_DDOT":"0.0000000000000","TIME_SYSTEM":"UTC","LAUNCH_DATE":"2022-03-03","ELEMENT_SET_NO":"999","COUNTRY_CODE":"US","INCLINATION":"53.2161","ECCENTRICITY":"0.00008570","EPOCH":"2023-06-03T21:19:27.443712","PERIAPSIS":"539.162","TLE_LINE1":"1 51864U 22022N   23154.88851208  .00000977  00000-0  79443-4 0  9991","TLE_LINE2":"2 51864  53.2161 222.3036 0000857 112.3492 247.7591 15.08836834 70710","SEMIMAJOR_AXIS":"6917.890","RA_OF_ASC_NODE":"222.3036","OBJECT_NAME":"STARLINK-3548"},{"TIME_SYSTEM":"UTC","LAUNCH_DATE":"2022-03-03","MEAN_MOTION_DDOT":"0.0000000000000","CENTER_NAME":"EARTH","MEAN_MOTION_DOT":"0.00000082","REV_AT_EPOCH":"7060","SITE":"AFETR","EPOCH":"2023-06-03T11:19:16.150944","PERIAPSIS":"539.245","TLE_LINE2":"2 51865  53.2163 224.1661 0000741  84.1055 276.0021 15.08836017 70604","TLE_LINE1":"1 51865U 22022P   23154.47171471  .00000082  00000-0  23204-4 0  9995","INCLINATION":"53.2163","ECCENTRICITY":"0.00007410","ELEMENT_SET_NO":"999","COUNTRY_CODE":"US","RA_OF_ASC_NODE":"224.1661","OBJECT_NAME":"STARLINK-3503","SEMIMAJOR_AXIS":"6917.893","APOAPSIS":"540.270","MEAN_ANOMALY":"276.0021","NORAD_CAT_ID":"51865","EPHEMERIS_TYPE":"0","OBJECT_ID":"2022-022P","BSTAR":"0.00002320400000","DECAY_DATE":null,"MEAN_MOTION":"15.08836017","PERIOD":"95.438","REF_FRAME":"TEME","GP_ID":"233112256","OBJECT_TYPE":"PAYLOAD","FILE":"3924076","RCS_SIZE":"LARGE","MEAN_ELEMENT_THEORY":"SGP4","CLASSIFICATION_TYPE":"U","ARG_OF_PERICENTER":"84.1055"},{"CENTER_NAME":"EARTH","MEAN_MOTION_DDOT":"0.0000000000000","LAUNCH_DATE":"2022-03-03","TIME_SYSTEM":"UTC","SITE":"AFETR","REV_AT_EPOCH":"7066","MEAN_MOTION_DOT":"0.00000193","TLE_LINE2":"2 51866  53.2162 222.3316 0000883  62.3664 297.7418 15.08838573 70667","TLE_LINE1":"1 51866U 22022Q   23154.88019438  .00000193  00000-0  30178-4 0  9996","PERIAPSIS":"539.139","EPOCH":"2023-06-03T21:07:28.794432","COUNTRY_CODE":"US","ELEMENT_SET_NO":"999","ECCENTRICITY":"0.00008830","INCLINATION":"53.2162","SEMIMAJOR_AXIS":"6917.885","OBJECT_NAME":"STARLINK-3553","RA_OF_ASC_NODE":"222.3316","APOAPSIS":"540.361","BSTAR":"0.00003017800000","OBJECT_ID":"2022-022Q","EPHEMERIS_TYPE":"0","NORAD_CAT_ID":"51866","MEAN_ANOMALY":"297.7418","GP_ID":"233143812","PERIOD":"95.438","REF_FRAME":"TEME","MEAN_MOTION":"15.08838573","DECAY_DATE":null,"FILE":"3924324","OBJECT_TYPE":"PAYLOAD","RCS_SIZE":"LARGE","MEAN_ELEMENT_THEORY":"SGP4","CLASSIFICATION_TYPE":"U","ARG_OF_PERICENTER":"62.3664"},{"OBJECT_NAME":"STARLINK-3590","RA_OF_ASC_NODE":"224.1832","SEMIMAJOR_AXIS":"6917.891","LAUNCH_DATE":"2022-03-03","TIME_SYSTEM":"UTC","CENTER_NAME":"EARTH","MEAN_MOTION_DDOT":"0.0000000000000","MEAN_MOTION_DOT":"-0.00000152","SITE":"AFETR","REV_AT_EPOCH":"7060","TLE_LINE1":"1 51867U 22022R   23154.46803566 -.00000152  00000-0  85575-5 0  9992","TLE_LINE2":"2 51867  53.2162 224.1832 0000928  86.7063 273.4035 15.08836584 70604","EPOCH":"2023-06-03T11:13:58.281024","PERIAPSIS":"539.114","ECCENTRICITY":"0.00009280","INCLINATION":"53.2162","COUNTRY_CODE":"US","ELEMENT_SET_NO":"999","RCS_SIZE":"LARGE","MEAN_ELEMENT_THEORY":"SGP4","CLASSIFICATION_TYPE":"U","ARG_OF_PERICENTER":"86.7063","APOAPSIS":"540.398","NORAD_CAT_ID":"51867","MEAN_ANOMALY":"273.4035","BSTAR":"0.00000855750000","OBJECT_ID":"2022-022R","EPHEMERIS_TYPE":"0","PERIOD":"95.438","REF_FRAME":"TEME","DECAY_DATE":null,"MEAN_MOTION":"15.08836584","GP_ID":"233110755","OBJECT_TYPE":"PAYLOAD","FILE":"3924076"},{"INCLINATION":"53.2168","ECCENTRICITY":"0.00012270","ELEMENT_SET_NO":"999","COUNTRY_CODE":"US","PERIAPSIS":"538.948","EPOCH":"2023-06-03T11:24:36.057312","TLE_LINE1":"1 51868U 22022S   23154.47541733 -.00002676  00000-0 -15019-3 0  9997","TLE_LINE2":"2 51868  53.2168 224.1470 0001227 106.4848 253.6279 15.08823308 70603","MEAN_MOTION_DOT":"-0.00002676","REV_AT_EPOCH":"7060","SITE":"AFETR","LAUNCH_DATE":"2022-03-03","TIME_SYSTEM":"UTC","CENTER_NAME":"EARTH","MEAN_MOTION_DDOT":"0.0000000000000","RA_OF_ASC_NODE":"224.1470","OBJECT_NAME":"STARLINK-3578","SEMIMAJOR_AXIS":"6917.931","OBJECT_TYPE":"PAYLOAD","FILE":"3924275","DECAY_DATE":null,"MEAN_MOTION":"15.08823308","PERIOD":"95.439","REF_FRAME":"TEME","GP_ID":"233119825","MEAN_ANOMALY":"253.6279","NORAD_CAT_ID":"51868","EPHEMERIS_TYPE":"0","BSTAR":"-0.00015019000000","OBJECT_ID":"2022-022S","APOAPSIS":"540.645","ARG_OF_PERICENTER":"106.4848","CLASSIFICATION_TYPE":"U","MEAN_ELEMENT_THEORY":"SGP4","RCS_SIZE":"LARGE"},{"ARG_OF_PERICENTER":"77.3804","CLASSIFICATION_TYPE":"U","MEAN_ELEMENT_THEORY":"SGP4","RCS_SIZE":"LARGE","FILE":"3924275","OBJECT_TYPE":"PAYLOAD","GP_ID":"233120311","REF_FRAME":"TEME","PERIOD":"95.437","MEAN_MOTION":"15.08842992","DECAY_DATE":null,"OBJECT_ID":"2022-022T","BSTAR":"0.00004935300000","EPHEMERIS_TYPE":"0","NORAD_CAT_ID":"51869","MEAN_ANOMALY":"282.7287","APOAPSIS":"540.348","SEMIMAJOR_AXIS":"6917.871","OBJECT_NAME":"STARLINK-3588","RA_OF_ASC_NODE":"223.6374","COUNTRY_CODE":"US","ELEMENT_SET_NO":"999","ECCENTRICITY":"0.00008840","INCLINATION":"53.2168","TLE_LINE2":"2 51869  53.2168 223.6374 0000884  77.3804 282.7287 15.08842992 70621","TLE_LINE1":"1 51869U 22022T   23154.58947190  .00000498  00000-0  49353-4 0  9994","PERIAPSIS":"539.125","EPOCH":"2023-06-03T14:08:50.372160","SITE":"AFETR","REV_AT_EPOCH":"7062","MEAN_MOTION_DOT":"0.00000498","MEAN_MOTION_DDOT":"0.0000000000000","CENTER_NAME":"EARTH","LAUNCH_DATE":"2022-03-03","TIME_SYSTEM":"UTC"},{"SEMIMAJOR_AXIS":"6917.879","OBJECT_NAME":"STARLINK-3591","RA_OF_ASC_NODE":"224.1995","COUNTRY_CODE":"US","ELEMENT_SET_NO":"999","ECCENTRICITY":"0.00008430","INCLINATION":"53.2164","TLE_LINE1":"1 51870U 22022U   23154.46435122  .00000635  00000-0  57962-4 0  9998","TLE_LINE2":"2 51870  53.2164 224.1995 0000843  81.3933 278.7154 15.08840416 70657","EPOCH":"2023-06-03T11:08:39.945408","PERIAPSIS":"539.161","SITE":"AFETR","REV_AT_EPOCH":"7065","MEAN_MOTION_DOT":"0.00000635","CENTER_NAME":"EARTH","MEAN_MOTION_DDOT":"0.0000000000000","LAUNCH_DATE":"2022-03-03","TIME_SYSTEM":"UTC","ARG_OF_PERICENTER":"81.3933","CLASSIFICATION_TYPE":"U","MEAN_ELEMENT_THEORY":"SGP4","RCS_SIZE":"LARGE","FILE":"3924076","OBJECT_TYPE":"PAYLOAD","GP_ID":"233110505","REF_FRAME":"TEME","PERIOD":"95.438","DECAY_DATE":null,"MEAN_MOTION":"15.08840416","BSTAR":"0.00005796200000","OBJECT_ID":"2022-022U","EPHEMERIS_TYPE":"0","NORAD_CAT_ID":"51870","MEAN_ANOMALY":"278.7154","APOAPSIS":"540.327"},{"OBJECT_TYPE":"PAYLOAD","FILE":"3924275","PERIOD":"95.437","REF_FRAME":"TEME","MEAN_MOTION":"15.08844042","DECAY_DATE":null,"GP_ID":"233120306","NORAD_CAT_ID":"51871","MEAN_ANOMALY":"282.2741","BSTAR":"0.00015282000000","OBJECT_ID":"2022-022V","EPHEMERIS_TYPE":"0","APOAPSIS":"540.443","ARG_OF_PERICENTER":"77.8366","CLASSIFICATION_TYPE":"U","MEAN_ELEMENT_THEORY":"SGP4","RCS_SIZE":"LARGE","ECCENTRICITY":"0.00010270","INCLINATION":"53.2154","COUNTRY_CODE":"US","ELEMENT_SET_NO":"999","TLE_LINE2":"2 51871  53.2154 223.6528 0001027  77.8366 282.2741 15.08844042 70660","TLE_LINE1":"1 51871U 22022V   23154.58579282  .00002145  00000-0  15282-3 0  9994","PERIAPSIS":"539.023","EPOCH":"2023-06-03T14:03:32.499648","MEAN_MOTION_DOT":"0.00002145","REV_AT_EPOCH":"7066","SITE":"AFETR","LAUNCH_DATE":"2022-03-03","TIME_SYSTEM":"UTC","CENTER_NAME":"EARTH","MEAN_MOTION_DDOT":"0.0000000000000","OBJECT_NAME":"STARLINK-3567","RA_OF_ASC_NODE":"223.6528","SEMIMAJOR_AXIS":"6917.868"},{"SITE":"AFETR","REV_AT_EPOCH":"7067","MEAN_MOTION_DOT":"0.00000569","CENTER_NAME":"EARTH","MEAN_MOTION_DDOT":"0.0000000000000","TIME_SYSTEM":"UTC","LAUNCH_DATE":"2022-03-03","COUNTRY_CODE":"US","ELEMENT_SET_NO":"999","ECCENTRICITY":"0.00008170","INCLINATION":"53.2171","TLE_LINE1":"1 51872U 22022W   23154.89598566  .00000569  00000-0  56010-4 0  9998","TLE_LINE2":"2 51872  53.2171 221.9650 0000817  84.2882 275.8202 15.07202775 70679","EPOCH":"2023-06-03T21:30:13.161024","PERIAPSIS":"544.189","SEMIMAJOR_AXIS":"6922.889","OBJECT_NAME":"STARLINK-3554","RA_OF_ASC_NODE":"221.9650","OBJECT_ID":"2022-022W","BSTAR":"0.00005601000000","EPHEMERIS_TYPE":"0","NORAD_CAT_ID":"51872","MEAN_ANOMALY":"275.8202","APOAPSIS":"545.320","OBJECT_TYPE":"PAYLOAD","FILE":"3924324","GP_ID":"233144314","REF_FRAME":"TEME","PERIOD":"95.541","MEAN_MOTION":"15.07202775","DECAY_DATE":null,"MEAN_ELEMENT_THEORY":"SGP4","RCS_SIZE":"LARGE","ARG_OF_PERICENTER":"84.2882","CLASSIFICATION_TYPE":"U"}];
